[{"OBJECT_NAME":"QIANFAN-31","OBJECT_ID":"2024-185N","EPOCH":"2026-03-09T22:08:34.578816","MEAN_MOTION":13.58004966,"ECCENTRICITY":0.00086224,"INCLINATION":88.9726,"RA_OF_ASC_NODE":71.5047,"ARG_OF_PERICENTER":125.1689,"MEAN_ANOMALY":235.0275,"EPHEMERIS_TYPE":0,"CLASSIFICATION_TYPE":"U","NORAD_CAT_ID":61564,"ELEMENT_SET_NO":999,"REV_AT_EPOCH":7999,"BSTAR":0.00031636223,"MEAN_MOTION_DOT":2.41e-6,"MEAN_MOTION_DDOT":0},{"OBJECT_NAME":"P 76-5","OBJECT_ID":"1976-047A","EPOCH":"2026-03-09T12:45:01.652832","MEAN_MOTION":13.68276875,"ECCENTRICITY":0.00410923,"INCLINATION":99.9165,"RA_OF_ASC_NODE":279.236,"ARG_OF_PERICENTER":251.2355,"MEAN_ANOMALY":163.0671,"EPHEMERIS_TYPE":0,"CLASSIFICATION_TYPE":"U","NORAD_CAT_ID":8860,"ELEMENT_SET_NO":999,"REV_AT_EPOCH":48276,"BSTAR":0.000160048,"MEAN_MOTION_DOT":9.0e-7,"MEAN_MOTION_DDOT":0}]
